CUBEBUG-2 (LO-74)       
1 39440U 13066AA  26159.42178480  .00004132  00000+0  38299-3 0  9996
2 39440  97.8904 108.3636 0059286  57.5077 303.1854 14.93693224675686
FUNCUBE-1 (AO-73)       
1 39444U 13066AE  26159.43863648  .00005403  00000+0  33773-3 0  9992
2 39444  97.8273 130.7025 0034750 231.4089 128.4026 15.09385885678349
UWE-3                   
1 39446U 13066AG  26159.12517313  .00004591  00000+0  39518-3 0  9995
2 39446  97.8687 115.1387 0048867 351.6421   8.3981 14.96953360676222
UNISAT-6                
1 40012U 14033C   26159.39267427  .00002758  00000+0  29915-3 0  9991
2 40012  97.7872 312.2609 0046439  97.4259 263.2238 14.88199550644857
DUCHIFAT-1              
1 40021U 14033M   26159.12664082  .00107166  00000+0  11780-2 0  9999
2 40021  98.0465 217.0282 0004621 132.1747 227.9902 15.62815586654330
QB50P1                  
1 40025U 14033R   26159.51599980  .00008797  00000+0  43434-3 0  9992
2 40025  98.0972 170.0548 0007180 250.5787 109.4669 15.18129633651717
LILACSAT-2              
1 40908U 15049K   26159.49971067  .00015670  00000+0  26983-3 0  9995
2 40908  97.4659 196.0125 0005291 287.4159  72.6514 15.51156175594404
FOX-1A (AO-85)          
1 40967U 15058D   26159.49859023  .00002891  00000+0  26383-3 0  9992
2 40967  64.7761 305.9846 0129963  59.9928 301.4006 14.90927920112276
CAS-2T & KS-1Q          
1 41847U 16066G   26159.44434441  .00001755  00000+0  25337-3 0  9994
2 41847  98.3822 235.2804 0342460 155.9357 205.8274 14.44665589503532
RADFXSAT (FOX-1B)       
1 43017U 17073E   26159.34389375  .00007664  00000+0  33533-3 0  9990
2 43017  97.4721  26.7398 0150896 359.9259   0.1924 15.12571253464050
DIWATA-2B               
1 43678U 18084H   26159.50034753  .00002583  00000+0  21043-3 0  9999
2 43678  98.1170 355.3319 0012012 198.8355 161.2424 15.00411284414915
ES'HAIL 2               
1 43700U 18090A   26158.90104546  .00000159  00000+0  00000+0 0  9996
2 43700   0.0153  51.7811 0001905  61.1895 133.5104  1.00273859 27587
FOX-1CLIFF (AO-95)      
1 43770U 18099N   26159.42559166  .00009800  00000+0  37741-3 0  9990
2 43770  97.4389 219.7049 0008894  29.5478 330.6261 15.26525509411882
ITASAT                  
1 43786U 18099AE  26159.12858900  .00007372  00000+0  35522-3 0  9999
2 43786  97.4031 210.8218 0013094  31.6283 328.5736 15.18945561411539
JY1SAT (JO-97)          
1 43803U 18099AX  26159.41726799  .00014204  00000+0  44241-3 0  9991
2 43803  97.4131 222.2231 0004225 306.8306  53.2548 15.33373436412280
UWE-4                   
1 43880U 18111E   26158.76428061  .00033394  00000+0  69481-3 0  9993
2 43880  97.5856  86.7246 0007277  18.3165 341.8344 15.45534783409325
TIANYAN 01              
1 44881U 19093C   26159.49600804  .00001447  00000+0  16923-3 0  9990
2 44881  97.7527 231.9400 0014931 112.6448 247.6349 14.86507635350128
RS-44 & BREEZE-KM R/B   
1 44909U 19096E   26159.48340103  .00000024  00000+0  47655-4 0  9993
2 44909  82.5217 345.4899 0217776 164.4657 196.3271 12.79748665301231
SALSAT                  
1 46495U 20068K   26158.98778249  .00008175  00000+0  28698-3 0  9996
2 46495  97.8853 161.4934 0008911 345.1768  14.9208 15.29667638313959
XW-3 (CAS-9)            
1 50466U 21131B   26159.51602719  .00000640  00000+0  21143-3 0  9996
2 50466  98.4973 251.9529 0005230 116.7476 243.4249 14.41350415233866
GREENCUBE (IO-117)      
1 53109U 22080E   26152.46502029 -.00000003  00000+0  00000+0 0  9996
2 53109  70.1435 303.7143 0008869 293.3663  66.6064  6.42583280 91055
UMKA 1 (RS40S)          
1 57172U 23091G   26159.40854524  .00005533  00000+0  25418-3 0  9990
2 57172  97.5052 218.1401 0013815 145.1794 215.0348 15.20716302162670
CUBESX-HSE 3 (RS42S)    
1 57178U 23091N   26159.48172490  .00012866  00000+0  43109-3 0  9993
2 57178  97.5094 224.9602 0012122 121.5061 238.7365 15.30994072163096
MONITOR-3 (RS58S)       
1 57180U 23091Q   26159.48713282  .00010222  00000+0  37979-3 0  9998
2 57180  97.5085 222.8705 0013015 127.7059 232.5362 15.27665648162961
MONITOR-4 (RS57S)       
1 57182U 23091S   26159.46669205  .00010461  00000+0  38748-3 0  9993
2 57182  97.5080 222.8204 0012997 128.0204 232.2210 15.27760295162969
MONITOR-2 (RS39S)       
1 57184U 23091U   26159.48472382  .00005056  00000+0  24566-3 0  9992
2 57184  97.5076 217.8244 0012369 137.8916 222.3271 15.18830268162634
SVYATOBOR 1 (RS60S)     
1 57187U 23091X   26159.47235523  .00009141  00000+0  35274-3 0  9995
2 57187  97.5091 223.2419 0010852 120.5363 239.6948 15.26467025162985
VIZARD-METEO (RS38S)    
1 57189U 23091Z   26159.48254831  .00016673  00000+0  48083-3 0  9991
2 57189  97.5092 228.7951 0008687 103.5281 256.6930 15.35748388163358
POLYTECH-UNIVERSE 3 (R*)
1 57191U 23091AB  26159.51307444  .00005723  00000+0  27562-3 0  9990
2 57191  97.5051 217.3570 0016309 154.7249 205.4786 15.19030849162638
UTMN 2 (RS27S)          
1 57203U 23091AP  26159.50408558  .00012582  00000+0  41110-3 0  9997
2 57203  97.5088 226.6062 0009485 109.5684 250.6582 15.31837713163219
