OBJECT_NAME,OBJECT_ID,EPOCH,MEAN_MOTION,ECCENTRICITY,INCLINATION,RA_OF_ASC_NODE,ARG_OF_PERICENTER,MEAN_ANOMALY,EPHEMERIS_TYPE,CLASSIFICATION_TYPE,NORAD_CAT_ID,ELEMENT_SET_NO,REV_AT_EPOCH,BSTAR,MEAN_MOTION_DOT,MEAN_MOTION_DDOT
CUBEBUG-2 (LO-74),2013-066AA,2026-06-08T10:07:22.206720,14.93693224,.0059286,97.8904,108.3636,57.5077,303.1854,0,U,39440,999,67568,.38299E-3,.4132E-4,0
FUNCUBE-1 (AO-73),2013-066AE,2026-06-08T10:31:38.191872,15.09385885,.003475,97.8273,130.7025,231.4089,128.4026,0,U,39444,999,67834,.33773E-3,.5403E-4,0
UWE-3,2013-066AG,2026-06-08T03:00:14.958432,14.96953360,.00488677,97.8687,115.1387,351.6421,8.3981,0,U,39446,999,67622,.3951752E-3,.4591E-4,0
UNISAT-6,2014-033C,2026-06-08T09:25:27.056928,14.88199550,.0046439,97.7872,312.2609,97.4259,263.2238,0,U,40012,999,64485,.29915E-3,.2758E-4,0
DUCHIFAT-1,2014-033M,2026-06-08T03:02:21.766848,15.62815586,.00046211,98.0465,217.0282,132.1747,227.9902,0,U,40021,999,65433,.11779944E-2,.107166E-2,0
QB50P1,2014-033R,2026-06-08T12:23:02.382720,15.18129633,.000718,98.0972,170.0548,250.5787,109.4669,0,U,40025,999,65171,.43434E-3,.8797E-4,0
LILACSAT-2,2015-049K,2026-06-08T11:59:35.001888,15.51156175,.0005291,97.4659,196.0125,287.4159,72.6514,0,U,40908,999,59440,.26983E-3,.1567E-3,0
FOX-1A (AO-85),2015-058D,2026-06-08T11:57:58.195872,14.90927920,.0129963,64.7761,305.9846,59.9928,301.4006,0,U,40967,999,11227,.26383E-3,.2891E-4,0
CAS-2T & KS-1Q,2016-066G,2026-06-08T10:39:51.357024,14.44665589,.034246,98.3822,235.2804,155.9357,205.8274,0,U,41847,999,50353,.25337E-3,.1755E-4,0
RADFXSAT (FOX-1B),2017-073E,2026-06-08T08:15:12.420000,15.12571253,.0150896,97.4721,26.7398,359.9259,0.1924,0,U,43017,999,46405,.33533E-3,.7664E-4,0
DIWATA-2B,2018-084H,2026-06-08T12:00:30.026592,15.00411284,.0012012,98.1170,355.3319,198.8355,161.2424,0,U,43678,999,41491,.21043E-3,.2583E-4,0
ES'HAIL 2,2018-090A,2026-06-07T21:37:30.327744,1.00273859,.00019055,0.0153,51.7811,61.1895,133.5104,0,U,43700,999,2758,0,.159E-5,0
FOX-1CLIFF (AO-95),2018-099N,2026-06-08T10:12:51.119424,15.26525509,.0008894,97.4389,219.7049,29.5478,330.6261,0,U,43770,999,41188,.37741E-3,.98E-4,0
ITASAT,2018-099AE,2026-06-08T03:05:10.089600,15.18945561,.00130947,97.4031,210.8218,31.6283,328.5736,0,U,43786,999,41153,.35521857E-3,.7372E-4,0
JY1SAT (JO-97),2018-099AX,2026-06-08T10:00:51.954336,15.33373436,.0004225,97.4131,222.2231,306.8306,53.2548,0,U,43803,999,41228,.44241E-3,.14204E-3,0
UWE-4,2018-111E,2026-06-07T18:20:33.844704,15.45534783,.00072776,97.5856,86.7246,18.3165,341.8344,0,U,43880,999,40932,.69480709E-3,.33394E-3,0
TIANYAN 01,2019-093C,2026-06-08T11:54:15.094656,14.86507635,.0014931,97.7527,231.9400,112.6448,247.6349,0,U,44881,999,35012,.16923E-3,.1447E-4,0
RS-44 & BREEZE-KM R/B,2019-096E,2026-06-08T11:36:05.848992,12.79748665,.0217776,82.5217,345.4899,164.4657,196.3271,0,U,44909,999,30123,.47655E-4,.24E-6,0
SALSAT,2020-068K,2026-06-07T23:42:24.407136,15.29667638,.00089117,97.8853,161.4934,345.1768,14.9208,0,U,46495,999,31395,.28698063E-3,.8175E-4,0
XW-3 (CAS-9),2021-131B,2026-06-08T12:23:04.749216,14.41350415,.000523,98.4973,251.9529,116.7476,243.4249,0,U,50466,999,23386,.21143E-3,.64E-5,0
GREENCUBE (IO-117),2022-080E,2026-06-01T11:09:37.753056,6.42583280,.00088692,70.1435,303.7143,293.3663,66.6064,0,U,53109,999,9105,0,-.3E-7,0
UMKA 1 (RS40S),2023-091G,2026-06-08T09:48:18.308736,15.20716302,.0013815,97.5052,218.1401,145.1794,215.0348,0,U,57172,999,16267,.25418E-3,.5533E-4,0
CUBESX-HSE 3 (RS42S),2023-091N,2026-06-08T11:33:41.031360,15.30994072,.0012122,97.5094,224.9602,121.5061,238.7365,0,U,57178,999,16309,.43109E-3,.12866E-3,0
MONITOR-3 (RS58S),2023-091Q,2026-06-08T11:41:28.275648,15.27665648,.0013015,97.5085,222.8705,127.7059,232.5362,0,U,57180,999,16296,.37979E-3,.10222E-3,0
MONITOR-4 (RS57S),2023-091S,2026-06-08T11:12:02.193120,15.27760295,.0012997,97.5080,222.8204,128.0204,232.2210,0,U,57182,999,16296,.38748E-3,.10461E-3,0
MONITOR-2 (RS39S),2023-091U,2026-06-08T11:38:00.138048,15.18830268,.0012369,97.5076,217.8244,137.8916,222.3271,0,U,57184,999,16263,.24566E-3,.5056E-4,0
SVYATOBOR 1 (RS60S),2023-091X,2026-06-08T11:20:11.491872,15.26467025,.0010852,97.5091,223.2419,120.5363,239.6948,0,U,57187,999,16298,.35274E-3,.9141E-4,0
VIZARD-METEO (RS38S),2023-091Z,2026-06-08T11:34:52.173984,15.35748388,.0008687,97.5092,228.7951,103.5281,256.6930,0,U,57189,999,16335,.48083E-3,.16673E-3,0
POLYTECH-UNIVERSE 3 (RS46S),2023-091AB,2026-06-08T12:18:49.631616,15.19030849,.0016309,97.5051,217.3570,154.7249,205.4786,0,U,57191,999,16263,.27562E-3,.5723E-4,0
UTMN 2 (RS27S),2023-091AP,2026-06-08T12:05:52.994112,15.31837713,.0009485,97.5088,226.6062,109.5684,250.6582,0,U,57203,999,16321,.4111E-3,.12582E-3,0
